start=new Date('2022-10-13T00:00:00.000Z').valueOf();
sats=[{"APOAPSIS":"548.679","DECAY_DATE":null,"FILE":"3606891","COUNTRY_CODE":"US","CENTER_NAME":"EARTH","PERIOD":"95.592","MEAN_MOTION_DOT":"0.00002506","TIME_SYSTEM":"UTC","ECCENTRICITY":"0.00021130","SITE":"AFETR","INCLINATION":"53.0540","REV_AT_EPOCH":"7619","ELEMENT_SET_NO":"999","CLASSIFICATION_TYPE":"U","BSTAR":"0.00018710000000","TLE_LINE2":"2 48641  53.0540 306.6509 0002113  41.8281 318.2869 15.06399147 76197","MEAN_MOTION":"15.06399147","LAUNCH_DATE":"2021-05-26","SEMIMAJOR_AXIS":"6925.351","PERIAPSIS":"545.753","NORAD_CAT_ID":"48641","EPHEMERIS_TYPE":"0","RA_OF_ASC_NODE":"306.6509","ARG_OF_PERICENTER":"41.8281","OBJECT_NAME":"STARLINK-2754","MEAN_ANOMALY":"318.2869","MEAN_ELEMENT_THEORY":"SGP4","MEAN_MOTION_DDOT":"0.0000000000000","OBJECT_ID":"2021-044D","TLE_LINE1":"1 48641U 21044D   22285.57927173  .00002506  00000-0  18710-3 0  9997","RCS_SIZE":"LARGE","OBJECT_TYPE":"PAYLOAD","GP_ID":"214922093","REF_FRAME":"TEME","EPOCH":"2022-10-12T13:54:09.077472"},{"CLASSIFICATION_TYPE":"U","ELEMENT_SET_NO":"999","TLE_LINE2":"2 48642  53.0544 306.8724 0001789  48.1807 311.9334 15.06391986 76184","BSTAR":"-0.00005264300000","SITE":"AFETR","ECCENTRICITY":"0.00017890","TIME_SYSTEM":"UTC","REV_AT_EPOCH":"7618","INCLINATION":"53.0544","CENTER_NAME":"EARTH","MEAN_MOTION_DOT":"-0.00001065","PERIOD":"95.593","DECAY_DATE":null,"APOAPSIS":"548.477","COUNTRY_CODE":"US","FILE":"3606148","OBJECT_TYPE":"PAYLOAD","GP_ID":"214880718","EPOCH":"2022-10-12T12:38:28.628736","REF_FRAME":"TEME","MEAN_ELEMENT_THEORY":"SGP4","MEAN_ANOMALY":"311.9334","TLE_LINE1":"1 48642U 21044E   22285.52672024 -.00001065  00000-0 -52643-4 0  9990","OBJECT_ID":"2021-044E","RCS_SIZE":"LARGE","MEAN_MOTION_DDOT":"0.0000000000000","RA_OF_ASC_NODE":"306.8724","NORAD_CAT_ID":"48642","EPHEMERIS_TYPE":"0","ARG_OF_PERICENTER":"48.1807","OBJECT_NAME":"STARLINK-2646","MEAN_MOTION":"15.06391986","SEMIMAJOR_AXIS":"6925.373","PERIAPSIS":"545.999","LAUNCH_DATE":"2021-05-26"},{"ELEMENT_SET_NO":"999","CLASSIFICATION_TYPE":"U","TLE_LINE2":"2 48643  53.0534 306.6714 0001791  51.3907 308.7242 15.06398798 76192","BSTAR":"0.00005508200000","ECCENTRICITY":"0.00017910","TIME_SYSTEM":"UTC","SITE":"AFETR","INCLINATION":"53.0534","REV_AT_EPOCH":"7619","CENTER_NAME":"EARTH","PERIOD":"95.592","MEAN_MOTION_DOT":"0.00000539","APOAPSIS":"548.458","DECAY_DATE":null,"FILE":"3606891","COUNTRY_CODE":"US","GP_ID":"214921107","OBJECT_TYPE":"PAYLOAD","REF_FRAME":"TEME","EPOCH":"2022-10-12T13:47:28.211712","MEAN_ANOMALY":"308.7242","MEAN_ELEMENT_THEORY":"SGP4","MEAN_MOTION_DDOT":"0.0000000000000","RCS_SIZE":"LARGE","TLE_LINE1":"1 48643U 21044F   22285.57463208  .00000539  00000-0  55082-4 0  9991","OBJECT_ID":"2021-044F","EPHEMERIS_TYPE":"0","NORAD_CAT_ID":"48643","RA_OF_ASC_NODE":"306.6714","OBJECT_NAME":"STARLINK-2704","ARG_OF_PERICENTER":"51.3907","MEAN_MOTION":"15.06398798","LAUNCH_DATE":"2021-05-26","PERIAPSIS":"545.977","SEMIMAJOR_AXIS":"6925.352"},{"TLE_LINE2":"2 48644  53.0553 305.4977 0001781  50.7517 309.3630 15.06395909 76235","BSTAR":"0.00003380700000","CLASSIFICATION_TYPE":"U","ELEMENT_SET_NO":"999","REV_AT_EPOCH":"7623","INCLINATION":"53.0553","SITE":"AFETR","ECCENTRICITY":"0.00017810","TIME_SYSTEM":"UTC","MEAN_MOTION_DOT":"0.00000222","PERIOD":"95.592","CENTER_NAME":"EARTH","COUNTRY_CODE":"US","FILE":"3606891","DECAY_DATE":null,"APOAPSIS":"548.460","EPOCH":"2022-10-12T20:05:40.725024","REF_FRAME":"TEME","OBJECT_TYPE":"PAYLOAD","GP_ID":"214921352","OBJECT_ID":"2021-044G","TLE_LINE1":"1 48644U 21044G   22285.83727691  .00000222  00000-0  33807-4 0  9990","RCS_SIZE":"LARGE","MEAN_MOTION_DDOT":"0.0000000000000","MEAN_ELEMENT_THEORY":"SGP4","MEAN_ANOMALY":"309.3630","ARG_OF_PERICENTER":"50.7517","OBJECT_NAME":"STARLINK-2695","RA_OF_ASC_NODE":"305.4977","NORAD_CAT_ID":"48644","EPHEMERIS_TYPE":"0","SEMIMAJOR_AXIS":"6925.361","PERIAPSIS":"545.993","LAUNCH_DATE":"2021-05-26","MEAN_MOTION":"15.06395909"},{"TLE_LINE1":"1 48645U 21044H   22285.50186640  .00017248  00000-0  11743-2 0  9997","OBJECT_ID":"2021-044H","RCS_SIZE":"LARGE","MEAN_MOTION_DDOT":"0.0000000000000","MEAN_ELEMENT_THEORY":"SGP4","MEAN_ANOMALY":"309.1487","EPOCH":"2022-10-12T12:02:41.256960","REF_FRAME":"TEME","OBJECT_TYPE":"PAYLOAD","GP_ID":"214881966","SEMIMAJOR_AXIS":"6925.379","PERIAPSIS":"545.900","LAUNCH_DATE":"2021-05-26","MEAN_MOTION":"15.06389970","ARG_OF_PERICENTER":"50.9674","OBJECT_NAME":"STARLINK-2733","RA_OF_ASC_NODE":"307.0114","NORAD_CAT_ID":"48645","EPHEMERIS_TYPE":"0","REV_AT_EPOCH":"7618","INCLINATION":"53.0532","SITE":"AFETR","TIME_SYSTEM":"UTC","ECCENTRICITY":"0.00019410","BSTAR":"0.00117430000000","TLE_LINE2":"2 48645  53.0532 307.0114 0001941  50.9674 309.1487 15.06389970 76181","CLASSIFICATION_TYPE":"U","ELEMENT_SET_NO":"999","COUNTRY_CODE":"US","FILE":"3606148","DECAY_DATE":null,"APOAPSIS":"548.589","MEAN_MOTION_DOT":"0.00017248","PERIOD":"95.593","CENTER_NAME":"EARTH"},{"DECAY_DATE":null,"APOAPSIS":"548.426","COUNTRY_CODE":"US","FILE":"3605444","CENTER_NAME":"EARTH","MEAN_MOTION_DOT":"-0.00000671","PERIOD":"95.593","SITE":"AFETR","TIME_SYSTEM":"UTC","ECCENTRICITY":"0.00017160","REV_AT_EPOCH":"7708","INCLINATION":"53.0564","CLASSIFICATION_TYPE":"U","ELEMENT_SET_NO":"999","BSTAR":"-0.00002617200000","TLE_LINE2":"2 48646  53.0564 307.0194 0001716  54.2143 305.9006 15.06392151 77089","MEAN_MOTION":"15.06392151","SEMIMAJOR_AXIS":"6925.373","PERIAPSIS":"546.049","LAUNCH_DATE":"2021-05-26","RA_OF_ASC_NODE":"307.0194","NORAD_CAT_ID":"48646","EPHEMERIS_TYPE":"0","ARG_OF_PERICENTER":"54.2143","OBJECT_NAME":"STARLINK-2732","MEAN_ELEMENT_THEORY":"SGP4","MEAN_ANOMALY":"305.9006","TLE_LINE1":"1 48646U 21044J   22285.49817370 -.00000671  00000-0 -26172-4 0  9995","OBJECT_ID":"2021-044J","RCS_SIZE":"LARGE","MEAN_MOTION_DDOT":"0.0000000000000","OBJECT_TYPE":"PAYLOAD","GP_ID":"214843337","EPOCH":"2022-10-12T11:57:22.207680","REF_FRAME":"TEME"},{"CENTER_NAME":"EARTH","PERIOD":"95.593","MEAN_MOTION_DOT":"-0.00000872","APOAPSIS":"548.414","DECAY_DATE":null,"FILE":"3606377","COUNTRY_CODE":"US","ELEMENT_SET_NO":"999","CLASSIFICATION_TYPE":"U","TLE_LINE2":"2 48647  53.0550 307.6324 0001660  60.8277 299.2878 15.06383290 77069","BSTAR":"-0.00003965600000","TIME_SYSTEM":"UTC","ECCENTRICITY":"0.00016600","SITE":"AFETR","INCLINATION":"53.0550","REV_AT_EPOCH":"7706","EPHEMERIS_TYPE":"0","NORAD_CAT_ID":"48647","RA_OF_ASC_NODE":"307.6324","OBJECT_NAME":"STARLINK-2691","ARG_OF_PERICENTER":"60.8277","MEAN_MOTION":"15.06383290","LAUNCH_DATE":"2021-05-26","PERIAPSIS":"546.115","SEMIMAJOR_AXIS":"6925.400","GP_ID":"214887265","OBJECT_TYPE":"PAYLOAD","REF_FRAME":"TEME","EPOCH":"2022-10-12T08:40:59.425824","MEAN_ANOMALY":"299.2878","MEAN_ELEMENT_THEORY":"SGP4","MEAN_MOTION_DDOT":"0.0000000000000","RCS_SIZE":"LARGE","OBJECT_ID":"2021-044K","TLE_LINE1":"1 48647U 21044K   22285.36179891 -.00000872  00000-0 -39656-4 0  9995"},{"DECAY_DATE":null,"APOAPSIS":"548.465","COUNTRY_CODE":"US","FILE":"3606891","CENTER_NAME":"EARTH","MEAN_MOTION_DOT":"-0.00000703","PERIOD":"95.592","SITE":"AFETR","ECCENTRICITY":"0.00017970","TIME_SYSTEM":"UTC","REV_AT_EPOCH":"7619","INCLINATION":"53.0557","CLASSIFICATION_TYPE":"U","ELEMENT_SET_NO":"999","BSTAR":"-0.00002827600000","TLE_LINE2":"2 48648  53.0557 306.8341 0001797  48.1789 311.9353 15.06397580 76195","MEAN_MOTION":"15.06397580","PERIAPSIS":"545.976","SEMIMAJOR_AXIS":"6925.356","LAUNCH_DATE":"2021-05-26","RA_OF_ASC_NODE":"306.8341","EPHEMERIS_TYPE":"0","NORAD_CAT_ID":"48648","OBJECT_NAME":"STARLINK-2521","ARG_OF_PERICENTER":"48.1789","MEAN_ELEMENT_THEORY":"SGP4","MEAN_ANOMALY":"311.9353","RCS_SIZE":"LARGE","TLE_LINE1":"1 48648U 21044L   22285.57559348 -.00000703  00000-0 -28276-4 0  9997","OBJECT_ID":"2021-044L","MEAN_MOTION_DDOT":"0.0000000000000","GP_ID":"214921853","OBJECT_TYPE":"PAYLOAD","EPOCH":"2022-10-12T13:48:51.276672","REF_FRAME":"TEME"},{"RA_OF_ASC_NODE":"305.8609","EPHEMERIS_TYPE":"0","NORAD_CAT_ID":"48649","OBJECT_NAME":"STARLINK-2673","ARG_OF_PERICENTER":"48.5742","MEAN_MOTION":"15.06392259","PERIAPSIS":"545.755","SEMIMAJOR_AXIS":"6925.372","LAUNCH_DATE":"2021-05-26","GP_ID":"214886480","OBJECT_TYPE":"PAYLOAD","EPOCH":"2022-10-12T18:08:54.738240","REF_FRAME":"TEME","MEAN_ELEMENT_THEORY":"SGP4","MEAN_ANOMALY":"311.5430","RCS_SIZE":"LARGE","TLE_LINE1":"1 48649U 21044M   22285.75618910  .00000061  00000-0  23010-4 0  9995","OBJECT_ID":"2021-044M","MEAN_MOTION_DDOT":"0.0000000000000","CENTER_NAME":"EARTH","MEAN_MOTION_DOT":"0.00000061","PERIOD":"95.593","DECAY_DATE":null,"APOAPSIS":"548.720","COUNTRY_CODE":"US","FILE":"3606340","CLASSIFICATION_TYPE":"U","ELEMENT_SET_NO":"999","TLE_LINE2":"2 48649  53.0533 305.8609 0002141  48.5742 311.5430 15.06392259 77059","BSTAR":"0.00002301000000","SITE":"AFETR","ECCENTRICITY":"0.00021410","TIME_SYSTEM":"UTC","REV_AT_EPOCH":"7705","INCLINATION":"53.0533"},{"SEMIMAJOR_AXIS":"6925.392","PERIAPSIS":"546.102","LAUNCH_DATE":"2021-05-26","MEAN_MOTION":"15.06385691","ARG_OF_PERICENTER":"51.5067","OBJECT_NAME":"STARLINK-2672","RA_OF_ASC_NODE":"305.8823","NORAD_CAT_ID":"48650","EPHEMERIS_TYPE":"0","OBJECT_ID":"2021-044N","TLE_LINE1":"1 48650U 21044N   22285.75250420  .00000123  00000-0  27187-4 0  9993","RCS_SIZE":"MEDIUM","MEAN_MOTION_DDOT":"0.0000000000000","MEAN_ELEMENT_THEORY":"SGP4","MEAN_ANOMALY":"308.6072","EPOCH":"2022-10-12T18:03:36.362880","REF_FRAME":"TEME","OBJECT_TYPE":"PAYLOAD","GP_ID":"214886478","COUNTRY_CODE":"US","FILE":"3606340","DECAY_DATE":null,"APOAPSIS":"548.413","MEAN_MOTION_DOT":"0.00000123","PERIOD":"95.593","CENTER_NAME":"EARTH","REV_AT_EPOCH":"7705","INCLINATION":"53.0535","SITE":"AFETR","ECCENTRICITY":"0.00016690","TIME_SYSTEM":"UTC","BSTAR":"0.00002718700000","TLE_LINE2":"2 48650  53.0535 305.8823 0001669  51.5067 308.6072 15.06385691 77050","CLASSIFICATION_TYPE":"U","ELEMENT_SET_NO":"999"}];
